NORAD_CAT_ID,OBJECT_NAME,OBJECT_TYPE,EPOCH,MEAN_MOTION,ECCENTRICITY,INCLINATION,RA_OF_ASC_NODE,ARG_OF_PERICENTER,MEAN_ANOMALY,BSTAR,MEAN_MOTION_DOT,MEAN_MOTION_DDOT,TLE_LINE0,TLE_LINE1,TLE_LINE2,SEMIMAJOR_AXIS,PERIOD,APOGEE,PERIGEE,DECAYED
55789.0,STARLINK-5815,PAYLOAD,2024-02-23 21:22:37,14.98327199,0.0003003,69.9984,282.3123,271.3299,88.7516,-3.4308e-05,-5.02e-06,0.0,0 STARLINK-5815,1 55789U 23028BA  24054.89070682 -.00000502  00000-0 -34308-4 0  9995,2 55789  69.9984 282.3123 0003003 271.3299  88.7516 14.98327199 55469,6950.202,96.107,574.154,569.979,0.0
55789.0,STARLINK-5815,PAYLOAD,2024-02-24 00:34:53,14.98327012,0.000301,69.9984,281.9757,271.2517,88.8297,-3.642e-05,-5.28e-06,0.0,0 STARLINK-5815,1 55789U 23028BA  24055.02422719 -.00000528  00000-0 -36420-4 0  9998,2 55789  69.9984 281.9757 0003010 271.2517  88.8297 14.98327012 55479,6950.202,96.107,574.159,569.975,0.0
55789.0,STARLINK-5815,PAYLOAD,2024-02-24 08:35:33,14.98329551,0.0003044,69.9983,281.1339,271.4442,88.6368,-6.5978e-06,-1.72e-06,0.0,0 STARLINK-5815,1 55789U 23028BA  24055.35802487 -.00000172  00000-0 -65978-5 0  9994,2 55789  69.9983 281.1339 0003044 271.4442  88.6368 14.98329551 55536,6950.194,96.107,574.175,569.944,0.0
55789.0,STARLINK-5815,PAYLOAD,2024-02-24 21:24:37,14.98333149,0.0003098,69.9981,279.7875,271.8018,88.2786,1.6616e-05,1.05e-06,0.0,0 STARLINK-5815,1 55789U 23028BA  24055.89210131  .00000105  00000-0  16616-4 0  9990,2 55789  69.9981 279.7875 0003098 271.8018  88.2786 14.98333149 55611,6950.183,96.107,574.201,569.895,0.0
55789.0,STARLINK-5815,PAYLOAD,2024-02-25 00:36:53,14.98334611,0.0003077,69.9981,279.4508,271.9517,88.1289,3.4878e-05,3.23e-06,0.0,0 STARLINK-5815,1 55789U 23028BA  24056.02561961  .00000323  00000-0  34878-4 0  9998,2 55789  69.9981 279.4508 0003077 271.9517  88.1289 14.98334611 55626,6950.179,96.107,574.182,569.905,0.0
55789.0,STARLINK-5815,PAYLOAD,2024-02-25 15:02:06,14.98331095,0.0003081,69.9978,277.9358,271.7744,88.3062,7.9251e-05,8.53e-06,0.0,0 STARLINK-5815,1 55789U 23028BA  24056.62645915  .00000853  00000-0  79251-4 0  9998,2 55789  69.9978 277.9358 0003081 271.7744  88.3062 14.98331095 55728,6950.19,96.107,574.196,569.913,0.0
55789.0,STARLINK-5815,PAYLOAD,2024-02-25 23:02:46,14.9833512,0.0003056,69.9979,277.0939,271.3314,88.7495,9.3551e-05,1.024e-05,0.0,0 STARLINK-5815,1 55789U 23028BA  24056.96025543  .00001024  00000-0  93551-4 0  9994,2 55789  69.9979 277.0939 0003056 271.3314  88.7495 14.98335120 55778,6950.177,96.107,574.166,569.918,0.0
55789.0,STARLINK-5815,PAYLOAD,2024-02-26 00:38:54,14.98336265,0.0003051,69.998,276.9255,271.3085,88.7724,0.00010357,1.143e-05,0.0,0 STARLINK-5815,1 55789U 23028BA  24057.02701417  .00001143  00000-0  10357-3 0  9997,2 55789  69.9980 276.9255 0003051 271.3085  88.7724 14.98336265 55775,6950.174,96.107,574.159,569.918,0.0
55789.0,STARLINK-5815,PAYLOAD,2024-02-26 15:04:06,14.98337785,0.000297,69.9982,275.4104,271.8952,88.1867,2.2045e-05,1.7e-06,0.0,0 STARLINK-5815,1 55789U 23028BA  24057.62785290  .00000170  00000-0  22045-4 0  9991,2 55789  69.9982 275.4104 0002970 271.8952  88.1867 14.98337785 55872,6950.169,96.106,574.098,569.97,0.0
55789.0,STARLINK-5815,PAYLOAD,2024-02-26 19:52:28,14.98358016,0.0002754,69.9981,274.9053,258.6352,101.4498,0.00023658,2.733e-05,0.0,0 STARLINK-5815,1 55789U 23028BA  24057.82811213  .00002733  00000-0  23658-3 0  9995,2 55789  69.9981 274.9053 0002754 258.6352 101.4498 14.98358016 55896,6950.106,96.105,573.885,570.057,0.0
55789.0,STARLINK-5815,PAYLOAD,2024-02-26 21:28:37,14.98348528,0.0002334,70.0011,274.7377,250.5045,109.5862,0.00013129,1.475e-05,0.0,0 STARLINK-5815,1 55789U 23028BA  24057.89487999  .00001475  00000-0  13129-3 0  9996,2 55789  70.0011 274.7377 0002334 250.5045 109.5862 14.98348528 55918,6950.136,96.106,573.623,570.378,0.0
55789.0,STARLINK-5815,PAYLOAD,2024-02-27 07:05:26,14.98337366,0.0002742,69.9981,273.7271,272.2659,87.8186,-7.7809e-06,-1.86e-06,0.0,0 STARLINK-5815,1 55789U 23028BA  24058.29544638 -.00000186  00000-0 -77809-5 0  9992,2 55789  69.9981 273.7271 0002742 272.2659  87.8186 14.98337366 55968,6950.17,96.107,573.941,570.129,0.0
55789.0,STARLINK-5815,PAYLOAD,2024-02-27 19:54:31,14.98325432,0.0002662,69.9991,272.3829,260.8386,99.2472,-0.00012669,-1.604e-05,0.0,0 STARLINK-5815,1 55789U 23028BA  24058.82953561 -.00001604  00000-0 -12669-3 0  9997,2 55789  69.9991 272.3829 0002662 260.8386  99.2472 14.98325432 56040,6950.207,96.107,573.922,570.222,0.0
55789.0,STARLINK-5815,PAYLOAD,2024-02-27 21:30:40,14.98322332,0.0002636,69.9992,272.2147,254.7174,105.3694,-0.00018005,-2.24e-05,0.0,0 STARLINK-5815,1 55789U 23028BA  24058.89629890 -.00002240  00000-0 -18005-3 0  9996,2 55789  69.9992 272.2147 0002636 254.7174 105.3694 14.98322332 56064,6950.217,96.107,573.914,570.25,0.0
55789.0,STARLINK-5815,PAYLOAD,2024-02-28 07:07:27,14.98336276,0.0002983,69.9979,271.2038,264.5928,95.489,-3.4698e-05,-5.07e-06,0.0,0 STARLINK-5815,1 55789U 23028BA  24059.29684614 -.00000507  00000-0 -34698-4 0  9997,2 55789  69.9979 271.2038 0002983 264.5928  95.4890 14.98336276 56113,6950.173,96.107,574.112,569.965,0.0
55789.0,STARLINK-5815,PAYLOAD,2024-02-28 13:31:59,14.98352045,0.0002948,69.9972,270.5291,259.1944,100.8883,-0.00018997,-2.36e-05,0.0,0 STARLINK-5815,1 55789U 23028BA  24059.56388041 -.00002360  00000-0 -18997-3 0  9994,2 55789  69.9972 270.5291 0002948 259.1944 100.8883 14.98352045 56168,6950.125,96.106,574.039,569.941,0.0
55789.0,STARLINK-5815,PAYLOAD,2024-02-28 19:56:31,14.98349326,0.0002952,69.9979,269.8562,263.5695,96.5128,-0.00013199,-1.668e-05,0.0,0 STARLINK-5815,1 55789U 23028BA  24059.83091698 -.00001668  00000-0 -13199-3 0  9992,2 55789  69.9979 269.8562 0002952 263.5695  96.5128 14.98349326 56198,6950.133,96.106,574.05,569.946,0.0
55789.0,STARLINK-5815,PAYLOAD,2024-02-28 21:32:39,14.98349929,0.0002602,69.9985,269.6882,253.6482,106.4391,-0.00012621,-1.599e-05,0.0,0 STARLINK-5815,1 55789U 23028BA  24059.89767584 -.00001599  00000-0 -12621-3 0  9994,2 55789  69.9985 269.6882 0002602 253.6482 106.4391 14.98349929 56219,6950.131,96.106,573.805,570.188,0.0
55789.0,STARLINK-5815,PAYLOAD,2024-02-29 15:10:09,14.98317105,0.0002797,69.998,267.8349,266.3431,93.7408,2.6149e-05,2.19e-06,0.0,0 STARLINK-5815,1 55789U 23028BA  24060.63204972  .00000219  00000-0  26149-4 0  9992,2 55789  69.9980 267.8349 0002797 266.3431  93.7408 14.98317105 56322,6950.233,96.108,574.042,570.154,0.0
55789.0,STARLINK-5815,PAYLOAD,2024-02-29 19:58:33,14.98312981,0.0002892,69.9981,267.3299,269.5645,90.5182,1.5368e-05,9e-07,0.0,0 STARLINK-5815,1 55789U 23028BA  24060.83233421  .00000090  00000-0  15368-4 0  9993,2 55789  69.9981 267.3299 0002892 269.5645  90.5182 14.98312981 56343,6950.246,96.108,574.121,570.101,0.0
55789.0,STARLINK-5815,PAYLOAD,2024-02-29 21:34:41,14.98314896,0.0002894,69.9981,267.1621,268.8179,91.2648,1.4418e-05,7.9e-07,0.0,0 STARLINK-5815,1 55789U 23028BA  24060.89909361  .00000079  00000-0  14418-4 0  9994,2 55789  69.9981 267.1621 0002894 268.8179  91.2648 14.98314896 56360,6950.24,96.108,574.116,570.093,0.0
55789.0,STARLINK-5815,PAYLOAD,2024-03-01 13:36:02,14.98326202,0.0002783,69.9984,265.479,267.8249,92.2591,-0.00015281,-1.916e-05,0.0,0 STARLINK-5815,1 55789U 23028BA  24061.56669468 -.00001916  00000-0 -15281-3 0  9991,2 55789  69.9984 265.4790 0002783 267.8249  92.2591 14.98326202 56468,6950.205,96.107,574.004,570.135,0.0
55789.0,STARLINK-5815,PAYLOAD,2024-03-01 20:00:34,14.98326554,0.0002841,69.9983,264.8057,268.9673,91.1161,-0.00015112,-1.895e-05,0.0,0 STARLINK-5815,1 55789U 23028BA  24061.83373509 -.00001895  00000-0 -15112-3 0  9998,2 55789  69.9983 264.8057 0002841 268.9673  91.1161 14.98326554 56498,6950.204,96.107,574.043,570.094,0.0
55789.0,STARLINK-5815,PAYLOAD,2024-03-01 21:36:42,14.98326138,0.0002854,69.9982,264.6372,268.8603,91.2229,-0.00015195,-1.905e-05,0.0,0 STARLINK-5815,1 55789U 23028BA  24061.90049559 -.00001905  00000-0 -15195-3 0  9994,2 55789  69.9982 264.6372 0002854 268.8603  91.2229 14.98326138 56518,6950.205,96.107,574.053,570.086,0.0
55789.0,STARLINK-5815,PAYLOAD,2024-03-02 13:38:03,14.98319124,0.0002928,69.9979,262.9532,269.9669,90.1155,4.8939e-05,4.91e-06,0.0,0 STARLINK-5815,1 55789U 23028BA  24062.56809734  .00000491  00000-0  48939-4 0  9996,2 55789  69.9979 262.9532 0002928 269.9669  90.1155 14.98319124 56613,6950.227,96.108,574.127,570.056,0.0
55789.0,STARLINK-5815,PAYLOAD,2024-03-02 20:02:35,14.98319905,0.0002919,69.9978,262.2799,269.8643,90.2181,5.5541e-05,5.7e-06,0.0,0 STARLINK-5815,1 55789U 23028BA  24062.83513854  .00000570  00000-0  55541-4 0  9996,2 55789  69.9978 262.2799 0002919 269.8643  90.2181 14.98319905 56641,6950.224,96.108,574.118,570.06,0.0
55789.0,STARLINK-5815,PAYLOAD,2024-03-02 21:38:44,14.98320593,0.0002909,69.9978,262.1115,269.8176,90.265,6.2518e-05,6.53e-06,0.0,0 STARLINK-5815,1 55789U 23028BA  24062.90189832  .00000653  00000-0  62518-4 0  9993,2 55789  69.9978 262.1115 0002909 269.8176  90.2650 14.98320593 56660,6950.222,96.108,574.109,570.065,0.0
55789.0,STARLINK-5815,PAYLOAD,2024-03-03 15:16:12,14.98325273,0.0002939,69.9975,260.2604,270.2514,89.8308,7.4185e-05,7.92e-06,0.0,0 STARLINK-5815,1 55789U 23028BA  24063.63625873  .00000792  00000-0  74185-4 0  9991,2 55789  69.9975 260.2604 0002939 270.2514  89.8308 14.98325273 56770,6950.208,96.107,574.115,570.03,0.0
55789.0,STARLINK-5815,PAYLOAD,2024-03-03 20:04:36,14.98326517,0.0002915,69.9974,259.7551,270.1169,89.9656,8.434e-05,9.13e-06,0.0,0 STARLINK-5815,1 55789U 23028BA  24063.83653822  .00000913  00000-0  84340-4 0  9997,2 55789  69.9974 259.7551 0002915 270.1169  89.9656 14.98326517 56793,6950.204,96.107,574.095,570.043,0.0
55789.0,STARLINK-5815,PAYLOAD,2024-03-03 21:40:44,14.98327393,0.0002903,69.9974,259.5867,270.0422,90.0405,9.2892e-05,1.015e-05,0.0,0 STARLINK-5815,1 55789U 23028BA  24063.90329758  .00001015  00000-0  92892-4 0  9998,2 55789  69.9974 259.5867 0002903 270.0422  90.0405 14.98327393 56810,6950.201,96.107,574.084,570.048,0.0
